INTELSAT 902 (IS-902)   
1 26900U 01039A   26155.19862758 -.00000273  00000+0  00000+0 0  9996
2 26900   6.0857  71.9392 0004269 358.5031 203.6038  1.00271704 90566
INTELSAT 904 (IS-904)   
1 27380U 02007A   26155.63012729 -.00000215  00000+0  00000+0 0  9995
2 27380   6.8885  69.3348 0007284 359.0948  20.0024  1.00270819 51641
DIRECTV 5 (TEMPO 1)     
1 27426U 02023A   26155.89953811 -.00000046  00000+0  00000+0 0  9990
2 27426   4.8461  75.4624 0003519   5.2911  26.3186  1.00271850 88006
INTELSAT 905 (IS-905)   
1 27438U 02027A   26155.62402795  .00000104  00000+0  00000+0 0  9992
2 27438   6.7218  69.9509 0004237  11.5199 259.0333  1.00272329 51232
GALAXY 3C (G-3C)        
1 27445U 02030A   26155.60720097 -.00000141  00000+0  00000+0 0  9992
2 27445   3.6981  78.1438 0001947  28.6349 270.0137  1.00271868 46367
INTELSAT 906 (IS-906)   
1 27513U 02041A   26155.83149854  .00000024  00000+0  00000+0 0  9990
2 27513   5.7724  73.0704 0004705 355.8727 187.8119  1.00270294 86902
GALAXY 13 (HORIZONS-1)  
1 27954U 03044A   26155.63013883  .00000144  00000+0  00000+0 0  9996
2 27954   1.3878  84.0091 0002062 342.2108 263.6829  1.00271571 46446
INTELSAT 10-02          
1 28358U 04022A   26155.63617519  .00000001  00000+0  00000+0 0  9990
2 28358   0.0141 341.1636 0000127 105.7346  34.2013  1.00271631 80433
DIRECTV 8               
1 28659U 05019A   26155.89789144  .00000013  00000+0  00000+0 0  9996
2 28659   0.0183 321.8863 0003154 113.1138  22.5344  1.00271383 76958
GALAXY 28 (G-28)        
1 28702U 05022A   26155.91609152 -.00000189  00000+0  00000+0 0  9997
2 28702   3.2666  79.0827 0003188   0.1133 116.8536  1.00269177 51857
GALAXY 16 (G-16)        
1 29236U 06023A   26155.90196479 -.00000115  00000+0  00000+0 0  9993
2 29236   0.0147 274.0856 0003153 170.0966  34.8782  1.00273797 72859
DIRECTV 9S              
1 29494U 06043A   26155.90153146 -.00000102  00000+0  00000+0 0  9991
2 29494   2.3887  81.0490 0005183   3.6774  31.9817  1.00271980 51265
GALAXY 17 (G-17)        
1 31307U 07016B   26155.90473814 -.00000195  00000+0  00000+0 0  9997
2 31307   2.9408  80.0567 0004921  12.2949  41.7037  1.00273968 69685
INTELSAT 11 (IS-11)     
1 32253U 07044B   26155.62760481 -.00000139  00000+0  00000+0 0  9995
2 32253   3.5325  78.8209 0001650  74.4904 146.6760  0.99053533 68325
HORIZONS-2              
1 32388U 07063B   26155.90699148 -.00000242  00000+0  00000+0 0  9992
2 32388   2.5701  80.7756 0004191 352.1049  73.2045  1.00273609 67690
DIRECTV 11              
1 32729U 08013A   26155.90187812 -.00000113  00000+0  00000+0 0  9994
2 32729   0.0153 150.9196 0000574 236.0221  91.8989  1.00270355 45474
GALAXY 18 (G-18)        
1 32951U 08024A   26155.89711144  .00000037  00000+0  00000+0 0  9996
2 32951   0.0121  37.3016 0003298  46.3730   9.6152  1.00271734 45738
INTELSAT 25 (IS-25)     
1 33153U 08034A   26155.81404076 -.00000167  00000+0  00000+0 0  9992
2 33153   2.6764  80.4561 0001755  12.6038 270.1716  0.99015302 65569
GALAXY 19 (G-19)        
1 33376U 08045A   26155.90231146 -.00000127  00000+0  00000+0 0  9993
2 33376   0.0161  28.3304 0003495  63.7949  29.0501  1.00270520 64780
FM-5                    
1 35493U 09034A   26155.90447814 -.00000188  00000+0  00000+0 0  9992
2 35493   0.0114 298.9217 0000406  18.7070 175.1655  1.00272535 46525
INTELSAT 14 (IS-14)     
1 36097U 09064A   26155.91262483 -.00000261  00000+0  00000+0 0  9996
2 36097   0.0116 312.3230 0002877 136.9029  87.6829  1.00272954 60481
INTELSAT 15 (IS-15)     
1 36106U 09067A   26155.80025038 -.00000173  00000+0  00000+0 0  9993
2 36106   0.0146 318.0491 0002469 117.3360 191.0971  1.00272632 41104
DIRECTV 12              
1 36131U 09075A   26155.61030990 -.00000092  00000+0  00000+0 0  9992
2 36131   0.0403 147.4672 0000487 266.6647 315.9192  1.00273044 46427
INTELSAT 16 (IS-16)     
1 36397U 10006A   26155.90647147 -.00000233  00000+0  00000+0 0  9999
2 36397   0.0139  27.9727 0002266  57.3147  58.2078  1.00272002 59536
XM-5                    
1 37185U 10053A   26155.39972941 -.00000011  00000+0  00000+0 0  9997
2 37185   0.0616 274.3576 0002923 276.0478  91.1514  1.00272037 57356
INTELSAT 17 (IS-17)     
1 37238U 10065B   26155.83149854  .00000011  00000+0  00000+0 0  9996
2 37238   0.0077 288.4666 0002395 149.3712 180.7641  1.00271854 53121
INTELSAT 28 (IS-28)     
1 37392U 11016A   26155.91531150 -.00000213  00000+0  00000+0 0  9992
2 37392   1.7741  82.7740 0004053 351.1240 117.2920  1.00270072 53168
INTELSAT 18 (IS-18)     
1 37834U 11056A   26155.80203838  .00000065  00000+0  00000+0 0  9998
2 37834   0.0121 294.0773 0002261 151.6533 276.2486  1.00271660 53688
INTELSAT 22 (IS-22)     
1 38098U 12011A   26155.93583898 -.00000047  00000+0  00000+0 0  9995
2 38098   0.0107  37.5216 0001610  23.3839 241.4562  1.00273340  7065
INTELSAT 19 (IS-19)     
1 38356U 12030A   26155.69786649 -.00000044  00000+0  00000+0 0  9992
2 38356   0.0185 340.3848 0003208  99.8436 230.1515  1.00272139 50325
INTELSAT 20 (IS-20)     
1 38740U 12043A   26155.83149854 -.00000012  00000+0  00000+0 0  9995
2 38740   0.0098  81.5762 0001553  96.2799  83.2508  1.00271341 50624
